start=new Date('2021-09-16T00:00:00.000Z').valueOf();
sats=[{"FILE":"3116578","MEAN_MOTION":"15.06408657","NORAD_CAT_ID":"48469","TIME_SYSTEM":"UTC","INCLINATION":"53.0562","EPOCH":"2021-09-15T22:00:00.999936","GP_ID":"184766384","MEAN_ANOMALY":"113.6541","REF_FRAME":"TEME","EPHEMERIS_TYPE":"0","PERIAPSIS":"546.708","MEAN_MOTION_DOT":"-0.00028176","MEAN_ELEMENT_THEORY":"SGP4","ELEMENT_SET_NO":"999","BSTAR":"-0.00187980000000","ARG_OF_PERICENTER":"130.2952","TLE_LINE1":"1 48469U 21040AT  21258.91667824 -.00028176  00000-0 -18798-2 0  9990","PERIOD":"95.592","COUNTRY_CODE":"US","APOAPSIS":"547.666","RCS_SIZE":"LARGE","LAUNCH_DATE":"2021-05-09","RA_OF_ASC_NODE":"334.8851","ECCENTRICITY":"0.00006910","OBJECT_NAME":"STARLINK-2661","CLASSIFICATION_TYPE":"U","TLE_LINE2":"2 48469  53.0562 334.8851 0000691 130.2952 113.6541 15.06408657 21224","SITE":"AFETR","CENTER_NAME":"EARTH","REV_AT_EPOCH":"2122","SEMIMAJOR_AXIS":"6925.322","MEAN_MOTION_DDOT":"0.0000000000000","DECAY_DATE":null,"OBJECT_ID":"2021-040AT","OBJECT_TYPE":"PAYLOAD"},{"MEAN_ELEMENT_THEORY":"SGP4","MEAN_MOTION_DOT":"-0.00028595","PERIAPSIS":"546.847","EPHEMERIS_TYPE":"0","GP_ID":"184764255","REF_FRAME":"TEME","MEAN_ANOMALY":"117.6139","EPOCH":"2021-09-15T22:00:00.999936","INCLINATION":"53.0550","NORAD_CAT_ID":"48470","TIME_SYSTEM":"UTC","MEAN_MOTION":"15.06393428","FILE":"3116481","RCS_SIZE":"LARGE","APOAPSIS":"547.620","COUNTRY_CODE":"US","TLE_LINE1":"1 48470U 21040AU  21258.91667824 -.00028595  00000-0 -19089-2 0  9991","PERIOD":"95.593","ARG_OF_PERICENTER":"146.4390","BSTAR":"-0.00190890000000","ELEMENT_SET_NO":"999","SEMIMAJOR_AXIS":"6925.369","REV_AT_EPOCH":"2122","CENTER_NAME":"EARTH","SITE":"AFETR","TLE_LINE2":"2 48470  53.0550 334.8787 0000558 146.4390 117.6139 15.06393428 21224","CLASSIFICATION_TYPE":"U","OBJECT_NAME":"STARLINK-2675","ECCENTRICITY":"0.00005580","LAUNCH_DATE":"2021-05-09","RA_OF_ASC_NODE":"334.8787","OBJECT_TYPE":"PAYLOAD","OBJECT_ID":"2021-040AU","DECAY_DATE":null,"MEAN_MOTION_DDOT":"0.0000000000000"},{"OBJECT_TYPE":"PAYLOAD","OBJECT_ID":"2021-040AV","DECAY_DATE":null,"MEAN_MOTION_DDOT":"0.0000000000000","CENTER_NAME":"EARTH","SITE":"AFETR","TLE_LINE2":"2 48471  53.0560 334.8839 0000930 118.6046 185.4111 15.06397023  3595","SEMIMAJOR_AXIS":"6925.358","REV_AT_EPOCH":"359","ECCENTRICITY":"0.00009300","LAUNCH_DATE":"2021-05-09","RA_OF_ASC_NODE":"334.8839","CLASSIFICATION_TYPE":"U","OBJECT_NAME":"STARLINK-2684","APOAPSIS":"547.867","RCS_SIZE":"LARGE","ARG_OF_PERICENTER":"118.6046","BSTAR":"-0.00193320000000","ELEMENT_SET_NO":"999","COUNTRY_CODE":"US","TLE_LINE1":"1 48471U 21040AV  21258.91667824 -.00028957  00000-0 -19332-2 0  9995","PERIOD":"95.592","PERIAPSIS":"546.579","EPHEMERIS_TYPE":"0","REF_FRAME":"TEME","GP_ID":"184789311","MEAN_ANOMALY":"185.4111","MEAN_ELEMENT_THEORY":"SGP4","MEAN_MOTION_DOT":"-0.00028957","INCLINATION":"53.0560","MEAN_MOTION":"15.06397023","NORAD_CAT_ID":"48471","TIME_SYSTEM":"UTC","FILE":"3116597","EPOCH":"2021-09-15T22:00:00.999936"},{"SITE":"AFETR","CENTER_NAME":"EARTH","TLE_LINE2":"2 48472  53.0447 334.9260 0001015 123.0852 280.9392 15.06405522  3607","REV_AT_EPOCH":"360","SEMIMAJOR_AXIS":"6925.332","ECCENTRICITY":"0.00010150","LAUNCH_DATE":"2021-05-09","RA_OF_ASC_NODE":"334.9260","OBJECT_NAME":"STARLINK-2722","CLASSIFICATION_TYPE":"U","OBJECT_TYPE":"PAYLOAD","DECAY_DATE":null,"OBJECT_ID":"2021-040AW","MEAN_MOTION_DDOT":"0.0000000000000","EPHEMERIS_TYPE":"0","PERIAPSIS":"546.494","GP_ID":"184789808","REF_FRAME":"TEME","MEAN_ANOMALY":"280.9392","MEAN_MOTION_DOT":"-0.00027115","MEAN_ELEMENT_THEORY":"SGP4","TIME_SYSTEM":"UTC","NORAD_CAT_ID":"48472","MEAN_MOTION":"15.06405522","INCLINATION":"53.0447","FILE":"3116597","EPOCH":"2021-09-15T22:00:00.999936","APOAPSIS":"547.900","RCS_SIZE":"LARGE","ARG_OF_PERICENTER":"123.0852","ELEMENT_SET_NO":"999","BSTAR":"-0.00180810000000","COUNTRY_CODE":"US","TLE_LINE1":"1 48472U 21040AW  21258.91667824 -.00027115  00000-0 -18081-2 0  9991","PERIOD":"95.592"},{"OBJECT_ID":"2021-040AX","DECAY_DATE":null,"MEAN_MOTION_DDOT":"0.0000000000000","OBJECT_TYPE":"PAYLOAD","ECCENTRICITY":"0.00005640","LAUNCH_DATE":"2021-05-09","RA_OF_ASC_NODE":"334.8867","CLASSIFICATION_TYPE":"U","OBJECT_NAME":"STARLINK-2658","SITE":"AFETR","CENTER_NAME":"EARTH","TLE_LINE2":"2 48473  53.0567 334.8867 0000564 129.1252  74.8807 15.06397037  3615","SEMIMAJOR_AXIS":"6925.358","REV_AT_EPOCH":"361","ARG_OF_PERICENTER":"129.1252","ELEMENT_SET_NO":"999","BSTAR":"-0.00178500000000","TLE_LINE1":"1 48473U 21040AX  21258.91667824 -.00026766  00000-0 -17850-2 0  9996","PERIOD":"95.592","COUNTRY_CODE":"US","APOAPSIS":"547.613","RCS_SIZE":"LARGE","TIME_SYSTEM":"UTC","NORAD_CAT_ID":"48473","MEAN_MOTION":"15.06397037","INCLINATION":"53.0567","FILE":"3116597","EPOCH":"2021-09-15T22:00:00.999936","EPHEMERIS_TYPE":"0","PERIAPSIS":"546.832","REF_FRAME":"TEME","GP_ID":"184789716","MEAN_ANOMALY":"74.8807","MEAN_MOTION_DOT":"-0.00026766","MEAN_ELEMENT_THEORY":"SGP4"},{"MEAN_MOTION_DOT":"-0.00027599","MEAN_ELEMENT_THEORY":"SGP4","REF_FRAME":"TEME","GP_ID":"184765533","MEAN_ANOMALY":"233.3953","EPHEMERIS_TYPE":"0","PERIAPSIS":"546.546","EPOCH":"2021-09-15T22:00:00.999936","FILE":"3116526","NORAD_CAT_ID":"48474","MEAN_MOTION":"15.06402599","TIME_SYSTEM":"UTC","INCLINATION":"53.0406","RCS_SIZE":"LARGE","APOAPSIS":"547.865","COUNTRY_CODE":"US","TLE_LINE1":"1 48474U 21040AY  21258.91667824 -.00027599  00000-0 -18410-2 0  9995","PERIOD":"95.592","ELEMENT_SET_NO":"999","BSTAR":"-0.00184100000000","ARG_OF_PERICENTER":"150.6111","SEMIMAJOR_AXIS":"6925.341","REV_AT_EPOCH":"2121","TLE_LINE2":"2 48474  53.0406 334.9384 0000952 150.6111 233.3953 15.06402599 21217","SITE":"AFETR","CENTER_NAME":"EARTH","OBJECT_NAME":"STARLINK-2697","CLASSIFICATION_TYPE":"U","RA_OF_ASC_NODE":"334.9384","LAUNCH_DATE":"2021-05-09","ECCENTRICITY":"0.00009520","OBJECT_TYPE":"PAYLOAD","MEAN_MOTION_DDOT":"0.0000000000000","OBJECT_ID":"2021-040AY","DECAY_DATE":null},{"TLE_LINE1":"1 48475U 21040AZ  21258.91667824 -.00026072  00000-0 -17371-2 0  9996","PERIOD":"95.591","COUNTRY_CODE":"US","BSTAR":"-0.00173710000000","ELEMENT_SET_NO":"999","ARG_OF_PERICENTER":"133.8680","RCS_SIZE":"LARGE","APOAPSIS":"547.833","EPOCH":"2021-09-15T22:00:00.999936","FILE":"3116431","INCLINATION":"53.0558","NORAD_CAT_ID":"48475","MEAN_MOTION":"15.06416049","TIME_SYSTEM":"UTC","MEAN_ELEMENT_THEORY":"SGP4","MEAN_MOTION_DOT":"-0.00026072","REF_FRAME":"TEME","GP_ID":"184762682","MEAN_ANOMALY":"50.1205","PERIAPSIS":"546.495","EPHEMERIS_TYPE":"0","MEAN_MOTION_DDOT":"0.0000000000000","OBJECT_ID":"2021-040AZ","DECAY_DATE":null,"OBJECT_TYPE":"PAYLOAD","CLASSIFICATION_TYPE":"U","OBJECT_NAME":"STARLINK-2619","LAUNCH_DATE":"2021-05-09","RA_OF_ASC_NODE":"334.8802","ECCENTRICITY":"0.00009660","REV_AT_EPOCH":"2122","SEMIMAJOR_AXIS":"6925.299","TLE_LINE2":"2 48475  53.0558 334.8802 0000966 133.8680  50.1205 15.06416049 21220","CENTER_NAME":"EARTH","SITE":"AFETR"},{"MEAN_MOTION_DDOT":"0.0000000000000","DECAY_DATE":null,"OBJECT_ID":"2021-040BA","OBJECT_TYPE":"PAYLOAD","OBJECT_NAME":"STARLINK-2723","CLASSIFICATION_TYPE":"U","LAUNCH_DATE":"2021-05-09","RA_OF_ASC_NODE":"335.0799","ECCENTRICITY":"0.00009140","REV_AT_EPOCH":"2122","SEMIMAJOR_AXIS":"6925.372","TLE_LINE2":"2 48476  53.0176 335.0799 0000914 105.0725 318.9558 15.06392406 21225","CENTER_NAME":"EARTH","SITE":"AFETR","COUNTRY_CODE":"US","TLE_LINE1":"1 48476U 21040BA  21258.91667824 -.00026656  00000-0 -17777-2 0  9995","PERIOD":"95.593","BSTAR":"-0.00177770000000","ELEMENT_SET_NO":"999","ARG_OF_PERICENTER":"105.0725","RCS_SIZE":"LARGE","APOAPSIS":"547.870","EPOCH":"2021-09-15T22:00:00.999936","FILE":"3116526","INCLINATION":"53.0176","TIME_SYSTEM":"UTC","NORAD_CAT_ID":"48476","MEAN_MOTION":"15.06392406","MEAN_ELEMENT_THEORY":"SGP4","MEAN_MOTION_DOT":"-0.00026656","GP_ID":"184765305","MEAN_ANOMALY":"318.9558","REF_FRAME":"TEME","PERIAPSIS":"546.604","EPHEMERIS_TYPE":"0"},{"REF_FRAME":"TEME","GP_ID":"184765555","MEAN_ANOMALY":"6.1250","EPHEMERIS_TYPE":"0","PERIAPSIS":"546.561","MEAN_MOTION_DOT":"-0.00064040","MEAN_ELEMENT_THEORY":"SGP4","FILE":"3116548","TIME_SYSTEM":"UTC","NORAD_CAT_ID":"48478","MEAN_MOTION":"15.06429584","INCLINATION":"53.0563","EPOCH":"2021-09-15T22:00:00.999936","APOAPSIS":"547.685","RCS_SIZE":"LARGE","ELEMENT_SET_NO":"999","BSTAR":"-0.00431590000000","ARG_OF_PERICENTER":"137.8870","PERIOD":"95.590","TLE_LINE1":"1 48478U 21040BC  21258.91667824 -.00064040  00000-0 -43159-2 0  9999","COUNTRY_CODE":"US","TLE_LINE2":"2 48478  53.0563 334.8817 0000812 137.8870   6.1250 15.06429584 20543","SITE":"AFETR","CENTER_NAME":"EARTH","SEMIMAJOR_AXIS":"6925.258","REV_AT_EPOCH":"2054","LAUNCH_DATE":"2021-05-09","RA_OF_ASC_NODE":"334.8817","ECCENTRICITY":"0.00008120","OBJECT_NAME":"STARLINK-2728","CLASSIFICATION_TYPE":"U","OBJECT_TYPE":"PAYLOAD","MEAN_MOTION_DDOT":"0.0000000000000","OBJECT_ID":"2021-040BC","DECAY_DATE":null},{"EPOCH":"2021-09-15T22:00:00.999936","FILE":"3116597","TIME_SYSTEM":"UTC","NORAD_CAT_ID":"48479","MEAN_MOTION":"15.06404495","INCLINATION":"53.0556","MEAN_MOTION_DOT":"-0.00031360","MEAN_ELEMENT_THEORY":"SGP4","MEAN_ANOMALY":"42.4802","GP_ID":"184789534","REF_FRAME":"TEME","EPHEMERIS_TYPE":"0","PERIAPSIS":"546.392","PERIOD":"95.592","TLE_LINE1":"1 48479U 21040BD  21258.91667824 -.00031360  00000-0 -20955-2 0  9998","COUNTRY_CODE":"US","ELEMENT_SET_NO":"999","BSTAR":"-0.00209550000000","ARG_OF_PERICENTER":"121.5249","RCS_SIZE":"LARGE","APOAPSIS":"548.008","CLASSIFICATION_TYPE":"U","OBJECT_NAME":"STARLINK-2755","LAUNCH_DATE":"2021-05-09","RA_OF_ASC_NODE":"334.8822","ECCENTRICITY":"0.00011670","REV_AT_EPOCH":"356","SEMIMAJOR_AXIS":"6925.335","TLE_LINE2":"2 48479  53.0556 334.8822 0001167 121.5249  42.4802 15.06404495  3569","SITE":"AFETR","CENTER_NAME":"EARTH","MEAN_MOTION_DDOT":"0.0000000000000","OBJECT_ID":"2021-040BD","DECAY_DATE":null,"OBJECT_TYPE":"PAYLOAD"}];
